ONEWEB-0045             
1 45151U 20008W   25028.68940454  .00000318  00000+0  86039-3 0  9993
2 45151  87.8902 121.5957 0001733 109.9919 250.1395 13.11419015244285
ONEWEB-0047             
1 45152U 20008X   25028.27335473  .00000345  00000+0  95095-3 0  9990
2 45152  87.8919 136.8806 0001606 106.7447 253.3856 13.10375587242072
ONEWEB-0048             
1 45153U 20008Y   25028.72649330  .00000109  00000+0  27521-3 0  9998
2 45153  87.8922 136.8111 0001638 104.7822 255.3487 13.10377020241745
ONEWEB-0049             
1 45154U 20008Z   25028.72815792  .00000170  00000+0  45189-3 0  9994
2 45154  87.8926 136.7987 0001562  87.4128 272.7178 13.10376614241964
ONEWEB-0051             
1 45155U 20008AA  25028.68769461  .00000297  00000+0  80213-3 0  9998
2 45155  87.8903 121.6392 0001852 105.6067 254.5265 13.11418005244960
ONEWEB-0052             
1 45156U 20008AB  25028.72483203  .00000004  00000+0 -24229-4 0  9994
2 45156  87.8917 136.7538 0001436  88.0765 272.0526 13.10376926241878
ONEWEB-0053             
1 45157U 20008AC  25028.24841941 -.00000719  00000+0 -20967-2 0  9996
2 45157  87.8918 136.9058 0001452 119.5616 240.5656 13.10373278241783
ONEWEB-0054             
1 45158U 20008AD  25028.28330222  .00000632  00000+0  17729-2 0  9990
2 45158  87.8922 136.8775 0001840 108.2427 251.8900 13.10373669241905
